NORAD_CAT_ID,OBJECT_NAME,OBJECT_TYPE,EPOCH,MEAN_MOTION,ECCENTRICITY,INCLINATION,RA_OF_ASC_NODE,ARG_OF_PERICENTER,MEAN_ANOMALY,BSTAR,MEAN_MOTION_DOT,MEAN_MOTION_DDOT,TLE_LINE0,TLE_LINE1,TLE_LINE2,SEMIMAJOR_AXIS,PERIOD,APOGEE,PERIGEE,DECAYED
53999.0,STARLINK-5079,PAYLOAD,2023-07-06 15:33:34,15.08847492,9.83e-05,53.217,280.1475,89.0927,271.0178,5.6528e-05,6.12e-06,0.0,0 STARLINK-5079,1 53999U 22125AM  23187.64831649  .00000612  00000-0  56528-4 0  9998,2 53999  53.2170 280.1475 0000983  89.0927 271.0178 15.08847492 42030,6917.857,95.437,540.403,539.042,0.0
53999.0,STARLINK-5079,PAYLOAD,2023-07-07 10:38:12,15.08842352,9.68e-05,53.2173,276.5798,89.4946,270.6157,6.4962e-05,7.46e-06,0.0,0 STARLINK-5079,1 53999U 22125AM  23188.44319803  .00000746  00000-0  64962-4 0  9999,2 53999  53.2173 276.5798 0000968  89.4946 270.6157 15.08842352 42153,6917.873,95.437,540.408,539.069,0.0
53999.0,STARLINK-5079,PAYLOAD,2023-07-08 16:50:31,15.08844949,0.0001082,53.2184,270.9285,90.7846,269.327,8.4127e-06,-1.54e-06,0.0,0 STARLINK-5079,1 53999U 22125AM  23189.70175642 -.00000154  00000-0  84127-5 0  9990,2 53999  53.2184 270.9285 0001082  90.7846 269.3270 15.08844949 42342,6917.865,95.437,540.479,538.982,0.0
53999.0,STARLINK-5079,PAYLOAD,2023-07-09 11:55:10,15.08835031,0.0001041,53.2182,267.3614,94.9269,265.1842,-3.6043e-05,-8.61e-06,0.0,0 STARLINK-5079,1 53999U 22125AM  23190.49664501 -.00000861  00000-0 -36043-4 0  9994,2 53999  53.2182 267.3614 0001041  94.9269 265.1842 15.08835031 42460,6917.896,95.438,540.481,539.04,0.0
53999.0,STARLINK-5079,PAYLOAD,2023-07-10 11:45:56,15.08844461,0.0001137,53.218,262.9017,76.9005,283.2114,4.3341e-05,4.02e-06,0.0,0 STARLINK-5079,1 53999U 22125AM  23191.49023839  .00000402  00000-0  43341-4 0  9996,2 53999  53.2180 262.9017 0001137  76.9005 283.2114 15.08844461 42617,6917.867,95.437,540.518,538.945,0.0
53999.0,STARLINK-5079,PAYLOAD,2023-07-10 21:18:16,15.08832905,0.0001465,53.2179,261.1145,81.527,278.5888,-1.4525e-05,-5.19e-06,0.0,0 STARLINK-5079,1 53999U 22125AM  23191.88768876 -.00000519  00000-0 -14525-4 0  9999,2 53999  53.2179 261.1145 0001465  81.5270 278.5888 15.08832905 42679,6917.902,95.438,540.781,538.754,0.0
53999.0,STARLINK-5079,PAYLOAD,2023-07-11 14:47:30,15.08837314,0.0001123,53.2169,257.8428,83.1724,276.9396,5.5172e-05,5.9e-06,0.0,0 STARLINK-5079,1 53999U 22125AM  23192.61632499  .00000590  00000-0  55172-4 0  9992,2 53999  53.2169 257.8428 0001123  83.1724 276.9396 15.08837314 42784,6917.889,95.438,540.53,538.977,0.0
53999.0,STARLINK-5079,PAYLOAD,2023-07-13 12:53:40,15.08847916,0.0001004,53.2166,249.2216,77.8678,282.2427,7.7788e-05,9.51e-06,0.0,0 STARLINK-5079,1 53999U 22125AM  23194.53727828  .00000951  00000-0  77788-4 0  9994,2 53999  53.2166 249.2216 0001004  77.8678 282.2427 15.08847916 43074,6917.856,95.437,540.416,539.027,0.0
53999.0,STARLINK-5079,PAYLOAD,2023-07-13 20:50:36,15.08842372,9.38e-05,53.2166,247.7354,84.8455,275.2644,1.5316e-05,-4.4e-07,0.0,0 STARLINK-5079,1 53999U 22125AM  23194.86848283 -.00000044  00000-0  15316-4 0  9992,2 53999  53.2166 247.7354 0000938  84.8455 275.2644 15.08842372 43126,6917.873,95.437,540.387,539.089,0.0
53999.0,STARLINK-5079,PAYLOAD,2023-07-14 09:33:42,15.08841212,0.0001476,53.216,245.357,92.6808,267.4353,-0.00011159,-2.064e-05,0.0,0 STARLINK-5079,1 53999U 22125AM  23195.39840969 -.00002064  00000-0 -11159-3 0  9999,2 53999  53.2160 245.3570 0001476  92.6808 267.4353 15.08841212 43202,6917.877,95.437,540.763,538.721,0.0
53999.0,STARLINK-5079,PAYLOAD,2023-07-15 09:24:28,15.08849308,0.0001146,53.2166,240.895,88.6857,271.4267,4.887e-05,4.9e-06,0.0,0 STARLINK-5079,1 53999U 22125AM  23196.39199902  .00000490  00000-0  48870-4 0  9994,2 53999  53.2166 240.8950 0001146  88.6857 271.4267 15.08849308 43352,6917.852,95.437,540.51,538.924,0.0
53999.0,STARLINK-5079,PAYLOAD,2023-07-16 02:53:44,15.08831365,0.0001205,53.2165,237.6242,91.9149,268.1982,6.1008e-05,6.83e-06,0.0,0 STARLINK-5079,1 53999U 22125AM  23197.12065070  .00000683  00000-0  61008-4 0  9996,2 53999  53.2165 237.6242 0001205  91.9149 268.1982 15.08831365 43469,6917.907,95.438,540.605,538.938,0.0
53999.0,STARLINK-5079,PAYLOAD,2023-07-16 09:15:17,15.08827548,0.0001234,53.217,236.4352,85.618,274.4953,2.7522e-05,1.5e-06,0.0,0 STARLINK-5079,1 53999U 22125AM  23197.38561632  .00000150  00000-0  27522-4 0  9991,2 53999  53.2170 236.4352 0001234  85.6180 274.4953 15.08827548 43502,6917.918,95.438,540.637,538.93,0.0
53999.0,STARLINK-5079,PAYLOAD,2023-07-17 09:06:03,15.08839801,0.0001106,53.2178,231.9758,79.7103,280.4013,4.3561e-05,4.06e-06,0.0,0 STARLINK-5079,1 53999U 22125AM  23198.37921189  .00000406  00000-0  43561-4 0  9993,2 53999  53.2178 231.9758 0001106  79.7103 280.4013 15.08839801 43652,6917.881,95.438,540.511,538.981,0.0
53999.0,STARLINK-5079,PAYLOAD,2023-07-19 00:50:42,15.0884013,0.0001168,53.217,224.5417,77.1888,282.9235,6.0492e-05,6.75e-06,0.0,0 STARLINK-5079,1 53999U 22125AM  23200.03521394  .00000675  00000-0  60492-4 0  9994,2 53999  53.2170 224.5417 0001168  77.1888 282.9235 15.08840130 43902,6917.88,95.438,540.553,538.937,0.0
53999.0,STARLINK-5079,PAYLOAD,2023-07-19 07:12:15,15.08836602,0.0001125,53.2165,223.3514,74.4797,285.6319,2.1558e-05,5.5e-07,0.0,0 STARLINK-5079,1 53999U 22125AM  23200.30017780  .00000055  00000-0  21558-4 0  9995,2 53999  53.2165 223.3514 0001125  74.4797 285.6319 15.08836602 43949,6917.891,95.438,540.534,538.978,0.0
53999.0,STARLINK-5079,PAYLOAD,2023-07-21 02:07:40,15.08836682,0.0001079,53.216,215.321,76.8899,283.2213,5.9399e-05,6.58e-06,0.0,0 STARLINK-5079,1 53999U 22125AM  23202.08865776  .00000658  00000-0  59399-4 0  9991,2 53999  53.2160 215.3210 0001079  76.8899 283.2213 15.08836682 44211,6917.891,95.438,540.502,539.009,0.0
53999.0,STARLINK-5079,PAYLOAD,2023-07-24 00:04:37,15.08839877,0.0001159,53.2157,202.2369,84.348,275.7644,-7.0383e-06,-4e-06,0.0,0 STARLINK-5079,1 53999U 22125AM  23205.00321703 -.00000400  00000-0 -70383-5 0  9997,2 53999  53.2157 202.2369 0001159  84.3480 275.7644 15.08839877 44589,6917.881,95.438,540.548,538.944,0.0
53999.0,STARLINK-5079,PAYLOAD,2023-07-25 09:27:44,15.08837005,0.0001334,53.2156,195.9943,70.0713,290.0423,4.9089e-05,4.93e-06,0.0,0 STARLINK-5079,1 53999U 22125AM  23206.39425938  .00000493  00000-0  49089-4 0  9993,2 53999  53.2156 195.9943 0001334  70.0713 290.0423 15.08837005 44799,6917.89,95.438,540.677,538.832,0.0
53999.0,STARLINK-5079,PAYLOAD,2023-07-26 07:43:07,15.08837999,0.0001352,53.216,191.8302,81.6217,278.4928,7.1325e-05,8.47e-06,0.0,0 STARLINK-5079,1 53999U 22125AM  23207.32161996  .00000847  00000-0  71325-4 0  9999,2 53999  53.2160 191.8302 0001352  81.6217 278.4928 15.08837999 44933,6917.887,95.438,540.687,538.816,0.0
53999.0,STARLINK-5079,PAYLOAD,2023-07-27 07:33:55,15.08839641,0.0001269,53.2169,187.3707,80.5859,279.5276,5.4826e-05,5.85e-06,0.0,0 STARLINK-5079,1 53999U 22125AM  23208.31522142  .00000585  00000-0  54826-4 0  9999,2 53999  53.2169 187.3707 0001269  80.5859 279.5276 15.08839641 45089,6917.881,95.438,540.624,538.869,0.0
53999.0,STARLINK-5079,PAYLOAD,2023-07-27 15:30:50,15.08837276,0.0001214,53.2163,185.8832,85.8019,274.3112,4.7635e-05,4.7e-06,0.0,0 STARLINK-5079,1 53999U 22125AM  23208.64642316  .00000470  00000-0  47635-4 0  9994,2 53999  53.2163 185.8832 0001214  85.8019 274.3112 15.08837276 45209,6917.889,95.438,540.594,538.914,0.0
53999.0,STARLINK-5079,PAYLOAD,2023-07-27 21:52:23,15.08835091,0.0001347,53.2173,184.6954,88.6714,271.4433,4.0002e-05,3.49e-06,0.0,0 STARLINK-5079,1 53999U 22125AM  23208.91138567  .00000349  00000-0  40002-4 0  9998,2 53999  53.2173 184.6954 0001347  88.6714 271.4433 15.08835091 45175,6917.895,95.438,540.692,538.829,0.0
53999.0,STARLINK-5079,PAYLOAD,2023-07-27 23:27:47,15.08831069,0.00013,53.2183,184.3968,90.7938,269.3203,-1.324e-05,-4.99e-06,0.0,0 STARLINK-5079,1 53999U 22125AM  23208.97763028 -.00000499  00000-0 -13240-4 0  9992,2 53999  53.2183 184.3968 0001300  90.7938 269.3203 15.08831069 45250,6917.908,95.438,540.672,538.873,0.0
53999.0,STARLINK-5079,PAYLOAD,2023-07-28 09:00:05,15.08843093,0.0001606,53.2171,182.6117,91.2976,268.82,-0.00013362,-2.414e-05,0.0,0 STARLINK-5079,1 53999U 22125AM  23209.37506749 -.00002414  00000-0 -13362-3 0  9995,2 53999  53.2171 182.6117 0001606  91.2976 268.8200 15.08843093 45319,6917.871,95.437,540.847,538.625,0.0
53999.0,STARLINK-5079,PAYLOAD,2023-07-29 07:15:29,15.08846236,0.0001309,53.2167,178.4486,87.0755,273.0387,8.7671e-05,1.108e-05,0.0,0 STARLINK-5079,1 53999U 22125AM  23210.30242001  .00001108  00000-0  87671-4 0  9990,2 53999  53.2167 178.4486 0001309  87.0755 273.0387 15.08846236 45455,6917.861,95.437,540.632,538.821,0.0
53999.0,STARLINK-5079,PAYLOAD,2023-07-30 02:20:07,15.08835492,0.0001291,53.2166,174.8803,87.7895,272.3245,9.5666e-05,1.235e-05,0.0,0 STARLINK-5079,1 53999U 22125AM  23211.09730716  .00001235  00000-0  95666-4 0  9996,2 53999  53.2166 174.8803 0001291  87.7895 272.3245 15.08835492 45579,6917.894,95.438,540.652,538.866,0.0
53999.0,STARLINK-5079,PAYLOAD,2023-07-31 06:57:03,15.08842573,0.000132,53.2167,169.5265,94.3746,265.7397,1.0036e-06,-2.72e-06,0.0,0 STARLINK-5079,1 53999U 22125AM  23212.28962520 -.00000272  00000-0  10036-5 0  9998,2 53999  53.2167 169.5265 0001320  94.3746 265.7397 15.08842573 45757,6917.873,95.437,540.651,538.824,0.0
53999.0,STARLINK-5079,PAYLOAD,2023-08-02 00:17:05,15.0883373,0.0001352,53.2173,161.7938,98.5546,261.5599,5.8228e-06,-1.95e-06,0.0,0 STARLINK-5079,1 53999U 22125AM  23214.01187135 -.00000195  00000-0  58228-5 0  9991,2 53999  53.2173 161.7938 0001352  98.5546 261.5599 15.08833730 46017,6917.9,95.438,540.7,538.829,0.0
53999.0,STARLINK-5079,PAYLOAD,2023-08-02 13:00:10,15.08839378,0.0001359,53.2175,159.4152,97.8471,262.2675,4.6286e-05,4.49e-06,0.0,0 STARLINK-5079,1 53999U 22125AM  23214.54178758  .00000449  00000-0  46286-4 0  9991,2 53999  53.2175 159.4152 0001359  97.8471 262.2675 15.08839378 46092,6917.882,95.438,540.687,538.807,0.0
